IRIDIUM 7 [-]           
1 24793U 97020B   23239.13988365  .00000362  00000+0  12061-3 0  9998
2 24793  86.3915  93.3681 0002256  90.9792 269.1663 14.34873036377212
IRIDIUM 5 [-]           
1 24795U 97020D   23239.41027938  .00002777  00000+0  28283-3 0  9996
2 24795  86.3964  25.0653 0128281 327.6410  31.6989 14.84315392387296
IRIDIUM 4 [-]           
1 24796U 97020E   23239.12524317  .00000425  00000+0  14009-3 0  9997
2 24796  86.3907  90.6884 0002028  91.5181 268.6247 14.35776768377720
IRIDIUM 914 [-]         
1 24836U 97030A   23239.17548569  .00000432  00000+0  13226-3 0  9991
2 24836  86.3896 101.2005 0001099 149.3590 210.7673 14.39569230512134
IRIDIUM 16 [-]          
1 24841U 97030F   23239.20585021  .00000438  00000+0  13995-3 0  9994
2 24841  86.4037 122.4068 0004266  78.9068 281.2609 14.37468925372153
IRIDIUM 911 [-]         
1 24842U 97030G   23239.21917946  .00000564  00000+0  15260-3 0  9998
2 24842  86.4461 121.7695 0015884 129.9318 230.3283 14.45971751379667
IRIDIUM 17 [-]          
1 24870U 97034B   23239.19800654  .00000495  00000+0  16174-3 0  9995
2 24870  86.4018 152.0577 0003252  55.4684 304.6819 14.36569698368792
IRIDIUM 920 [-]         
1 24871U 97034C   23239.20388952  .00000493  00000+0  14921-3 0  9996
2 24871  86.4000 132.8493 0013816  95.7457 264.5318 14.40284395371547
